SCD 1                   
1 22490U 93009B   26164.87128389  .00000363  00000+0  48347-4 0  9994
2 22490  24.9681 228.0525 0042177 102.7647  57.9732 14.46117773760637
TECHSAT 1B (GO-32)      
1 25397U 98043D   26164.97369742  .00000055  00000+0  43938-4 0  9996
2 25397  99.0066 157.6512 0000887 169.9985 190.1211 14.24427891450876
SCD 2                   
1 25504U 98060A   26165.12060329  .00000379  00000+0  54934-4 0  9999
2 25504  24.9949  91.0686 0016981  90.9561 292.0075 14.45524844459880
DLR-TUBSAT              
1 25757U 99029B   26164.98669998  .00000078  00000+0  30987-4 0  9993
2 25757  98.6695 160.3855 0014256   4.9527 355.1806 14.52426179432787
TERRA                   
1 25994U 99068A   26165.14090566  .00000356  00000+0  81397-4 0  9997
2 25994  97.9457 214.8078 0001346 200.8430 218.4176 14.61100947409165
MAROC-TUBSAT            
1 27004U 01056D   26165.09251418 -.00000025  00000+0  24228-4 0  9994
2 27004  99.8080 341.8937 0020229 148.9977 327.1123 13.70262377225763
AQUA                    
1 27424U 02022A   26165.18550747  .00000706  00000+0  15013-3 0  9997
2 27424  98.4276 134.4084 0001219  53.6694  36.4725 14.62154071282838
SHIYAN-1 (SY-1)         
1 28220U 04012A   26165.11722426  .00013905  00000+0  42897-3 0  9996
2 28220  97.8697 242.9858 0005869  43.2331 316.9370 15.33691010210623
AURA                    
1 28376U 04026A   26165.11030103  .00000702  00000+0  15182-3 0  9995
2 28376  98.3417 121.5381 0001244  73.6176 286.5161 14.61324951165762
IRS-P5 (CARTOSAT-1)     
1 28649U 05017A   26164.99129785  .00001253  00000+0  13197-3 0  9995
2 28649  97.5308 188.2007 0002671  83.8239 276.3284 14.91041865143344
SINAH 1                 
1 28893U 05043D   26165.18390961  .00000275  00000+0  61681-4 0  9998
2 28893  98.2855 299.4883 0013166 287.1312  72.8448 14.64155825100086
RESURS-DK 1             
1 29228U 06021A   26164.92849853  .00002592  00000+0  15165-3 0  9997
2 29228  69.9339 347.9881 0006803 294.2410  65.8045 15.13205683102086
ARIRANG-2 (KOMPSAT-2)   
1 29268U 06031A   26165.16416231  .00000157  00000+0  37859-4 0  9999
2 29268  97.8302 349.7574 0015943  83.1910  50.9841 14.64657764 61038
LAPAN-TUBSAT            
1 29709U 07001A   26165.22413556  .00000871  00000+0  10635-3 0  9996
2 29709  98.1336 164.3809 0011665 189.0596 171.0410 14.85948743 50717
HAIYANG-1B              
1 31113U 07010A   26165.20815762  .00000073  00000+0  43526-4 0  9991
2 31113  98.3494 147.1689 0012823 205.5424 154.5128 14.31026195   213
COSMO-SKYMED 1          
1 31598U 07023A   26165.19416007  .00002429  00000+0  21579-3 0  9999
2 31598  97.8840 357.0251 0001083  96.6914 263.4431 14.97086201 29343
TERRASAR-X              
1 31698U 07026A   26164.30549450  .00000550  00000+0  29393-4 0  9990
2 31698  97.4448 172.0669 0001630  86.5072 273.6349 15.19146801 52630
WORLDVIEW-1 (WV-1)      
1 32060U 07041A   26165.20661340  .00006098  00000+0  25289-3 0  9996
2 32060  97.3874 284.9929 0002551  29.9628 330.1755 15.24237674 42420
YAOGAN-3                
1 32289U 07055A   26165.17405296  .00003519  00000+0  36365-3 0  9998
2 32289  97.8155 195.0820 0002024  87.3910 272.7539 14.90774541  5420
COSMO-SKYMED 2          
1 32376U 07059A   26165.19058128  .00000349  00000+0  50414-4 0  9999
2 32376  97.8885 348.8320 0001386  86.2929 273.8443 14.82152754  1562
RADARSAT-2              
1 32382U 07061A   26165.23897650  .00000014  00000+0  22470-4 0  9995
2 32382  98.5775 172.2134 0001315  83.2253 276.9079 14.29980946965534
CARTOSAT-2A             
1 32783U 08021A   26165.20548628  .00000326  00000+0  50564-4 0  9993
2 32783  97.7640 214.0157 0013049 117.5286 242.7254 14.79233522978362
HUANJING 1A (HJ-1A)     
1 33320U 08041A   26165.19950159  .00001898  00000+0  23354-3 0  9998
2 33320  97.6675 151.1534 0019748 143.9526 216.3024 14.83983193957965
HUANJING 1B (HJ-1B)     
1 33321U 08041B   26165.23467866  .00000522  00000+0  69335-4 0  9995
2 33321  97.6512 154.3676 0035732 190.7596 169.2859 14.83311387957979
GEOEYE 1                
1 33331U 08042A   26165.21445054  .00000405  00000+0  84901-4 0  9996
2 33331  98.1235 239.1833 0005487  76.8272 283.3543 14.64723196949719
THEOS                   
1 33396U 08049A   26165.22108462  .00000046  00000+0  41635-4 0  9992
2 33396  98.5578 222.6010 0001249  81.6073 278.5245 14.20132414917543
COSMO-SKYMED 3          
1 33412U 08054A   26165.15511689  .00004886  00000+0  33052-3 0  9997
2 33412  97.8285  23.6762 0014415 278.3378  81.6214 15.06935980956483
YAOGAN-4                
1 33446U 08061A   26164.79394572  .00000945  00000+0  12215-3 0  9991
2 33446  97.9308  98.3293 0015752  82.4273 277.8730 14.83194294945162
GOSAT (IBUKI)           
1 33492U 09002A   26165.20652436  .00001023  00000+0  18889-3 0  9992
2 33492  98.0891 276.3252 0001453  84.4774 275.6596 14.67539924931027
DEIMOS-1                
1 35681U 09041A   26165.20198208  .00000311  00000+0  53047-4 0  9994
2 35681  97.7393 322.5591 0001445 133.9645 226.1684 14.75233668906442
